{
  "norad_id": 59839,
  "name": "STARLINK-31887",
  "history": [
    {
      "epoch": "2026-03-28T14:13:23.956032Z",
      "apogee_km": 483.8951167862315,
      "perigee_km": 482.100243953847,
      "latitude_deg": 5.75024072352904e-05,
      "longitude_deg": 128.59447767074573,
      "height_km": 482.7063693041301,
      "semi_major_axis_km": 6861.134680370039,
      "eccentricity": 0.0001308,
      "inclination_deg": 43.0017,
      "raan_deg": 167.9551,
      "arg_perigee_deg": 274.3535,
      "mean_anomaly_deg": 85.7168,
      "mean_motion_rev_day": 15.27597171
    },
    {
      "epoch": "2026-03-28T22:04:11.551296Z",
      "apogee_km": 484.3468077530888,
      "perigee_km": 481.7916945451607,
      "latitude_deg": 1.142890475991905e-05,
      "longitude_deg": 8.725968277433681,
      "height_km": 482.6938888390636,
      "semi_major_axis_km": 6861.206251149125,
      "eccentricity": 0.0001862,
      "inclination_deg": 43.0063,
      "raan_deg": 166.1072,
      "arg_perigee_deg": 276.8848,
      "mean_anomaly_deg": 83.1792,
      "mean_motion_rev_day": 15.27573269
    },
    {
      "epoch": "2026-03-29T21:36:33.473952Z",
      "apogee_km": 483.47925665309685,
      "perigee_km": 482.65179562844423,
      "latitude_deg": -3.6838884806921404e-05,
      "longitude_deg": 9.133443079515896,
      "height_km": 482.6359746207597,
      "semi_major_axis_km": 6861.202526140771,
      "eccentricity": 6.03e-05,
      "inclination_deg": 42.9984,
      "raan_deg": 160.5728,
      "arg_perigee_deg": 299.7549,
      "mean_anomaly_deg": 60.3242,
      "mean_motion_rev_day": 15.27574513
    },
    {
      "epoch": "2026-03-30T05:27:20.107584Z",
      "apogee_km": 483.6096974634329,
      "perigee_km": 482.5060056596112,
      "latitude_deg": 4.90843924930228e-06,
      "longitude_deg": -110.73355444542081,
      "height_km": 482.56602578673557,
      "semi_major_axis_km": 6861.194851561522,
      "eccentricity": 8.043e-05,
      "inclination_deg": 42.9985,
      "raan_deg": 158.7223,
      "arg_perigee_deg": 299.0294,
      "mean_anomaly_deg": 61.0477,
      "mean_motion_rev_day": 15.27577076
    },
    {
      "epoch": "2026-03-30T13:18:06.670368Z",
      "apogee_km": 483.69593730575525,
      "perigee_km": 482.38284536798074,
      "latitude_deg": -3.8103854674397984e-05,
      "longitude_deg": 129.40625370664327,
      "height_km": 482.7020048994041,
      "semi_major_axis_km": 6861.176391336868,
      "eccentricity": 9.569e-05,
      "inclination_deg": 42.9988,
      "raan_deg": 156.8784,
      "arg_perigee_deg": 279.9622,
      "mean_anomaly_deg": 80.1121,
      "mean_motion_rev_day": 15.27583241
    },
    {
      "epoch": "2026-03-30T21:08:53.204640Z",
      "apogee_km": 484.5472422742696,
      "perigee_km": 481.54959036587934,
      "latitude_deg": 3.3407916560660106e-05,
      "longitude_deg": 9.5426031100417,
      "height_km": 482.78211365343753,
      "semi_major_axis_km": 6861.185416320074,
      "eccentricity": 0.00021845,
      "inclination_deg": 43.0088,
      "raan_deg": 155.0308,
      "arg_perigee_deg": 271.705,
      "mean_anomaly_deg": 88.3552,
      "mean_motion_rev_day": 15.27580227
    },
    {
      "epoch": "2026-03-31T20:41:14.755776Z",
      "apogee_km": 483.5983998817228,
      "perigee_km": 482.54040185470967,
      "latitude_deg": 2.2859227640686418e-05,
      "longitude_deg": 9.946871306246742,
      "height_km": 482.6997027947197,
      "semi_major_axis_km": 6861.206400868216,
      "eccentricity": 7.71e-05,
      "inclination_deg": 43.0014,
      "raan_deg": 149.4916,
      "arg_perigee_deg": 286.0211,
      "mean_anomaly_deg": 74.0556,
      "mean_motion_rev_day": 15.27573219
    },
    {
      "epoch": "2026-04-01T20:13:35.442912Z",
      "apogee_km": 483.56192945294697,
      "perigee_km": 482.535496070318,
      "latitude_deg": -1.9062700285030754e-05,
      "longitude_deg": 10.355315779077852,
      "height_km": 482.7329070642954,
      "semi_major_axis_km": 6861.185712761632,
      "eccentricity": 7.48e-05,
      "inclination_deg": 43.0015,
      "raan_deg": 143.953,
      "arg_perigee_deg": 280.3392,
      "mean_anomaly_deg": 79.7375,
      "mean_motion_rev_day": 15.27580128
    },
    {
      "epoch": "2026-04-02T10:20:59.858304Z",
      "apogee_km": 483.7522407766219,
      "perigee_km": 482.3451488143328,
      "latitude_deg": -1.8202732441958666e-05,
      "longitude_deg": 154.59995696153337,
      "height_km": 482.8624803050977,
      "semi_major_axis_km": 6861.185694795477,
      "eccentricity": 0.00010254,
      "inclination_deg": 42.9999,
      "raan_deg": 140.6294,
      "arg_perigee_deg": 266.9512,
      "mean_anomaly_deg": 93.1222,
      "mean_motion_rev_day": 15.27580134
    },
    {
      "epoch": "2026-04-03T11:27:28.849536Z",
      "apogee_km": 483.5666032543659,
      "perigee_km": 482.4618206862142,
      "latitude_deg": 1.218208764184788e-05,
      "longitude_deg": 131.03734182532986,
      "height_km": 482.733214795917,
      "semi_major_axis_km": 6861.151211970289,
      "eccentricity": 8.051e-05,
      "inclination_deg": 42.9998,
      "raan_deg": 134.7187,
      "arg_perigee_deg": 275.9396,
      "mean_anomaly_deg": 84.1364,
      "mean_motion_rev_day": 15.2759165
    },
    {
      "epoch": "2026-04-04T10:59:51.216288Z",
      "apogee_km": 483.75614418674013,
      "perigee_km": 482.4224590182348,
      "latitude_deg": 3.824506008587447e-06,
      "longitude_deg": 131.43940282174603,
      "height_km": 483.05717790811735,
      "semi_major_axis_km": 6861.226301602487,
      "eccentricity": 9.719e-05,
      "inclination_deg": 42.9991,
      "raan_deg": 129.1807,
      "arg_perigee_deg": 253.2928,
      "mean_anomaly_deg": 106.7817,
      "mean_motion_rev_day": 15.27566573
    },
    {
      "epoch": "2026-04-05T12:06:21.959712Z",
      "apogee_km": 483.67018422597994,
      "perigee_km": 482.49252470761985,
      "latitude_deg": 6.3697407969771604e-06,
      "longitude_deg": 107.87243542747183,
      "height_km": 483.2327865323796,
      "semi_major_axis_km": 6861.2183544668,
      "eccentricity": 8.582e-05,
      "inclination_deg": 42.9998,
      "raan_deg": 123.273,
      "arg_perigee_deg": 230.3848,
      "mean_anomaly_deg": 129.6928,
      "mean_motion_rev_day": 15.27569227
    },
    {
      "epoch": "2026-04-05T18:22:58.761696Z",
      "apogee_km": 483.7930329396977,
      "perigee_km": 482.3110161104005,
      "latitude_deg": -2.6047673932639353e-05,
      "longitude_deg": 11.983876097485426,
      "height_km": 483.0038256867934,
      "semi_major_axis_km": 6861.189024525049,
      "eccentricity": 0.000108,
      "inclination_deg": 42.9992,
      "raan_deg": 121.7956,
      "arg_perigee_deg": 256.2992,
      "mean_anomaly_deg": 103.7739,
      "mean_motion_rev_day": 15.27579022
    },
    {
      "epoch": "2026-04-06T02:13:45.892128Z",
      "apogee_km": 483.4166296825215,
      "perigee_km": 482.6882458118098,
      "latitude_deg": -5.058095193299406e-06,
      "longitude_deg": -107.88072019674867,
      "height_km": 482.86511728525534,
      "semi_major_axis_km": 6861.189437747165,
      "eccentricity": 5.308e-05,
      "inclination_deg": 42.999,
      "raan_deg": 119.9496,
      "arg_perigee_deg": 264.1899,
      "mean_anomaly_deg": 95.8892,
      "mean_motion_rev_day": 15.27578884
    },
    {
      "epoch": "2026-04-07T11:11:02.963328Z",
      "apogee_km": 483.54731930064645,
      "perigee_km": 482.5444888073898,
      "latitude_deg": 1.168959935602171e-06,
      "longitude_deg": 108.69044966415267,
      "height_km": 482.84863722844136,
      "semi_major_axis_km": 6861.182904054018,
      "eccentricity": 7.308e-05,
      "inclination_deg": 43.0005,
      "raan_deg": 112.1953,
      "arg_perigee_deg": 266.963,
      "mean_anomaly_deg": 93.1138,
      "mean_motion_rev_day": 15.27581066
    },
    {
      "epoch": "2026-04-07T17:27:41.279904Z",
      "apogee_km": 483.56557925044035,
      "perigee_km": 482.6681272464357,
      "latitude_deg": -4.6410866246423636e-05,
      "longitude_deg": 12.79584578922037,
      "height_km": 482.8809289565779,
      "semi_major_axis_km": 6861.253853248438,
      "eccentricity": 6.54e-05,
      "inclination_deg": 43.0005,
      "raan_deg": 110.7182,
      "arg_perigee_deg": 271.5369,
      "mean_anomaly_deg": 88.5407,
      "mean_motion_rev_day": 15.27557372
    },
    {
      "epoch": "2026-04-08T09:09:13.761792Z",
      "apogee_km": 483.44431781304957,
      "perigee_km": 482.6270149250322,
      "latitude_deg": 4.362283567518059e-05,
      "longitude_deg": 133.07573646171085,
      "height_km": 482.81446697304256,
      "semi_major_axis_km": 6861.172666369041,
      "eccentricity": 5.956e-05,
      "inclination_deg": 43.001,
      "raan_deg": 107.0278,
      "arg_perigee_deg": 269.6209,
      "mean_anomaly_deg": 90.4575,
      "mean_motion_rev_day": 15.27584485
    },
    {
      "epoch": "2026-04-09T00:50:45.531744Z",
      "apogee_km": 483.64943508048054,
      "perigee_km": 482.3089102026697,
      "latitude_deg": -6.374299930492867e-06,
      "longitude_deg": -106.64654771057076,
      "height_km": 482.8930688351554,
      "semi_major_axis_km": 6861.116172641575,
      "eccentricity": 9.769e-05,
      "inclination_deg": 43.0018,
      "raan_deg": 103.3324,
      "arg_perigee_deg": 258.1712,
      "mean_anomaly_deg": 101.903,
      "mean_motion_rev_day": 15.27603352
    },
    {
      "epoch": "2026-04-10T06:39:46.601280Z",
      "apogee_km": 485.12709257472034,
      "perigee_km": 481.0033728088283,
      "latitude_deg": -2.6737899030481945e-06,
      "longitude_deg": 157.85955717805942,
      "height_km": 482.4370513425255,
      "semi_major_axis_km": 6861.202232691774,
      "eccentricity": 0.00030051,
      "inclination_deg": 43.0067,
      "raan_deg": 96.3175,
      "arg_perigee_deg": 281.3791,
      "mean_anomaly_deg": 78.6723,
      "mean_motion_rev_day": 15.27574611
    }
  ]
}